{
  "norad_id": 63908,
  "name": "STARLINK-34083",
  "history": [
    {
      "epoch": "2026-03-28T15:33:48.627072Z",
      "apogee_km": 484.0498071967704,
      "perigee_km": 481.9969480117916,
      "latitude_deg": 2.901116786110694e-06,
      "longitude_deg": 9.948283923663762,
      "height_km": 482.89629995351464,
      "semi_major_axis_km": 6861.16037760428,
      "eccentricity": 0.0001496,
      "inclination_deg": 43.0011,
      "raan_deg": 69.4668,
      "arg_perigee_deg": 264.6312,
      "mean_anomaly_deg": 95.4369,
      "mean_motion_rev_day": 15.27588589
    },
    {
      "epoch": "2026-03-29T05:41:13.040736Z",
      "apogee_km": 483.4864898702808,
      "perigee_km": 482.47516110280503,
      "latitude_deg": -7.512063738599395e-06,
      "longitude_deg": 154.1925197937579,
      "height_km": 482.8641559908354,
      "semi_major_axis_km": 6861.117825486543,
      "eccentricity": 7.37e-05,
      "inclination_deg": 43.0014,
      "raan_deg": 66.1428,
      "arg_perigee_deg": 257.774,
      "mean_anomaly_deg": 102.3029,
      "mean_motion_rev_day": 15.276028
    },
    {
      "epoch": "2026-03-29T22:56:56.607072Z",
      "apogee_km": 483.62298356764313,
      "perigee_km": 482.3756289871626,
      "latitude_deg": -1.5766737099182205e-05,
      "longitude_deg": -109.50734437550804,
      "height_km": 482.5278477418354,
      "semi_major_axis_km": 6861.136306277403,
      "eccentricity": 9.09e-05,
      "inclination_deg": 42.9956,
      "raan_deg": 62.0834,
      "arg_perigee_deg": 66.8181,
      "mean_anomaly_deg": 293.2766,
      "mean_motion_rev_day": 15.27596628
    },
    {
      "epoch": "2026-03-29T22:56:56.607936Z",
      "apogee_km": 483.6231207903702,
      "perigee_km": 482.37549176443645,
      "latitude_deg": -1.7222212171873412e-05,
      "longitude_deg": -109.50734953776615,
      "height_km": 482.5277937329592,
      "semi_major_axis_km": 6861.136306277403,
      "eccentricity": 9.092e-05,
      "inclination_deg": 42.9956,
      "raan_deg": 62.0834,
      "arg_perigee_deg": 66.8181,
      "mean_anomaly_deg": 293.2766,
      "mean_motion_rev_day": 15.27596628
    },
    {
      "epoch": "2026-03-30T14:38:30.054048Z",
      "apogee_km": 484.16468569643985,
      "perigee_km": 481.83875966945106,
      "latitude_deg": -3.299823455051046e-05,
      "longitude_deg": 10.76210240583034,
      "height_km": 482.8129345630434,
      "semi_major_axis_km": 6861.138722682946,
      "eccentricity": 0.0001695,
      "inclination_deg": 43.0014,
      "raan_deg": 58.3867,
      "arg_perigee_deg": 268.3188,
      "mean_anomaly_deg": 91.7469,
      "mean_motion_rev_day": 15.27595821
    },
    {
      "epoch": "2026-03-30T22:29:17.596608Z",
      "apogee_km": 483.43956210475517,
      "perigee_km": 482.6768716444467,
      "latitude_deg": 4.102619222825387e-05,
      "longitude_deg": -109.10245820346458,
      "height_km": 482.8823656891994,
      "semi_major_axis_km": 6861.195216874601,
      "eccentricity": 5.558e-05,
      "inclination_deg": 42.9983,
      "raan_deg": 56.5424,
      "arg_perigee_deg": 262.7084,
      "mean_anomaly_deg": 97.3705,
      "mean_motion_rev_day": 15.27576954
    },
    {
      "epoch": "2026-03-31T06:20:04.598304Z",
      "apogee_km": 483.96402959787065,
      "perigee_km": 482.1389534591235,
      "latitude_deg": 8.792521405323126e-06,
      "longitude_deg": 131.0308277005227,
      "height_km": 482.91158249379123,
      "semi_major_axis_km": 6861.188491528497,
      "eccentricity": 0.000133,
      "inclination_deg": 43.002,
      "raan_deg": 54.6938,
      "arg_perigee_deg": 264.7662,
      "mean_anomaly_deg": 95.3038,
      "mean_motion_rev_day": 15.275792
    },
    {
      "epoch": "2026-04-01T13:43:12.688032Z",
      "apogee_km": 483.68753801204457,
      "perigee_km": 482.38254308993146,
      "latitude_deg": -4.826283759738494e-05,
      "longitude_deg": 11.573401408138858,
      "height_km": 482.7918080182196,
      "semi_major_axis_km": 6861.172040550988,
      "eccentricity": 9.51e-05,
      "inclination_deg": 43.0023,
      "raan_deg": 47.3091,
      "arg_perigee_deg": 271.74,
      "mean_anomaly_deg": 88.3342,
      "mean_motion_rev_day": 15.27584694
    }
  ]
}